GLOBALSTAR M094         
1 39074U 13005C   25063.73300881 -.00000079  00000+0  13787-3 0  9993
2 39074  51.9954 140.1493 0000742  92.5605 267.5347 12.62268730559189
GLOBALSTAR M096         
1 39075U 13005D   25063.58789725 -.00000083  00000+0  11786-3 0  9997
2 39075  52.0062 189.0236 0000847  86.9639 273.1324 12.62268756558083
GLOBALSTAR M078         
1 39076U 13005E   25063.87753993 -.00000093  00000+0  60533-4 0  9994
2 39076  51.9860 272.7919 0000662   7.2121 352.8755 12.62259826556745
GLOBALSTAR M095         
1 39077U 13005F   25063.82525489 -.00000086  00000+0  98723-4 0  9991
2 39077  51.9784 270.2031 0000939  48.7396 311.3551 12.62267439556596
GLOBALSTAR M087         
1 52888U 22064A   25063.69756855 -.00000105  00000+0 -64588-5 0  9995
2 52888  51.9798  51.9927 0000352  62.7434 297.3468 12.62269128131846
